HAWK-11A                
1 62382U 24247F   26068.51231358  .00009457  00000+0  34106-3 0  9991
2 62382  44.9941 114.3328 0005466 327.3713  32.6832 15.28849427 67741
STARLINK-34861          
1 66368U 25254W   26068.73018316  .00030052  00000+0  10224-2 0  9998
2 66368  53.1574 229.9647 0000928  64.8458 295.2639 15.30208665 19012
